NORAD_CAT_ID,OBJECT_NAME,OBJECT_TYPE,EPOCH,MEAN_MOTION,ECCENTRICITY,INCLINATION,RA_OF_ASC_NODE,ARG_OF_PERICENTER,MEAN_ANOMALY,BSTAR,MEAN_MOTION_DOT,MEAN_MOTION_DDOT,TLE_LINE0,TLE_LINE1,TLE_LINE2,SEMIMAJOR_AXIS,PERIOD,APOGEE,PERIGEE,DECAYED
52878.0,STARLINK-4171,PAYLOAD,2022-07-25 14:00:01,15.73184351,0.0003553,53.2126,216.493,12.7142,286.2123,0.00020712,0.00028533,0.0,0 STARLINK-4171,1 52878U 22062BA  22206.58334491  .00028533  00000-0  20712-3 0  9997,2 52878  53.2126 216.4930 0003553  12.7142 286.2123 15.73184351  1305,6727.94,91.534,352.195,347.414,0.0
52878.0,STARLINK-4171,PAYLOAD,2022-07-25 22:00:00,15.73178253,0.0003288,53.2128,214.8415,15.226,12.6283,0.00057943,0.0008142999999999,0.0,0 STARLINK-4171,1 52878U 22062BA  22206.91667824  .00081430  00000-0  57943-3 0  9994,2 52878  53.2128 214.8415 0003288  15.2260  12.6283 15.73178253  1303,6727.956999999999,91.534,352.034,347.61,0.0
52878.0,STARLINK-4171,PAYLOAD,2022-07-26 14:00:01,15.73245037,0.0003549,53.2133,211.544,12.9408,192.8144,-0.00040532,-0.00057254,0.0,0 STARLINK-4171,1 52878U 22062BA  22207.58334491 -.00057254  00000-0 -40532-3 0  9994,2 52878  53.2133 211.5440 0003549  12.9408 192.8144 15.73245037  1301,6727.767,91.531,352.019,347.244,0.0
52878.0,STARLINK-4171,PAYLOAD,2022-07-26 20:00:01,15.73183333,0.0003344,53.2139,210.3053,12.7065,169.7782,0.00049258,0.00069045,0.0,0 STARLINK-4171,1 52878U 22062BA  22207.83334491  .00069045  00000-0  49258-3 0  9995,2 52878  53.2139 210.3053 0003344  12.7065 169.7782 15.73183333  6681,6727.943,91.534,352.05800000000005,347.55800000000005,0.0
52878.0,STARLINK-4171,PAYLOAD,2022-07-26 22:00:00,15.73187477,0.0003324,53.2139,209.8926,13.7897,280.9278,0.00055849,0.00078469,0.0,0 STARLINK-4171,1 52878U 22062BA  22207.91667824  .00078469  00000-0  55849-3 0  9996,2 52878  53.2139 209.8926 0003324  13.7897 280.9278 15.73187477  1308,6727.931,91.534,352.032,347.56,0.0
52878.0,STARLINK-4171,PAYLOAD,2022-07-27 14:00:01,15.73269814,0.0003471,53.2139,206.595,10.4404,102.2102,-0.00070977,-0.00099402,0.0,0 STARLINK-4171,1 52878U 22062BA  22208.58334491 -.00099402  00000-0 -70977-3 0  9992,2 52878  53.2139 206.5950 0003471  10.4404 102.2102 15.73269814  1308,6727.696,91.529,351.896,347.226,0.0
52878.0,STARLINK-4171,PAYLOAD,2022-07-27 16:00:00,15.73262326,0.0003359,53.2141,206.1821,9.8177,215.0796,-0.00081024,-0.00113163,0.0,0 STARLINK-4171,1 52878U 22062BA  22208.66667824 -.00113163  00000-0 -81024-3 0  9996,2 52878  53.2141 206.1821 0003359   9.8177 215.0796 15.73262326  6812,6727.717,91.53,351.842,347.3230000000001,0.0
52878.0,STARLINK-4171,PAYLOAD,2022-07-27 22:00:00,15.73149935,0.0003191999999999,53.2141,204.9437,8.6802,192.9237,0.00039923,0.00055671,0.0,0 STARLINK-4171,1 52878U 22062BA  22208.91667824  .00055671  00000-0  39923-3 0  9992,2 52878  53.2141 204.9437 0003192   8.6802 192.9237 15.73149935  1300,6728.038000000001,91.536,352.051,347.755,0.0
52878.0,STARLINK-4171,PAYLOAD,2022-07-28 08:00:01,15.73190388,0.0003477,53.2146,202.8842,8.7291,33.9922,9.9811e-06,7.77e-06,0.0,0 STARLINK-4171,1 52878U 22062BA  22209.33334491  .00000777  00000-0  99811-5 0  9991,2 52878  53.2146 202.8842 0003477   8.7291  33.9922 15.73190388  6927,6727.9230000000025,91.534,352.12699999999984,347.4480000000001,0.0
52878.0,STARLINK-4171,PAYLOAD,2022-07-28 14:00:01,15.73218332,0.0003448,53.2144,201.6463,6.1476,13.2607,-0.00060411,-0.00084657,0.0,0 STARLINK-4171,1 52878U 22062BA  22209.58334491 -.00084657  00000-0 -60411-3 0  9991,2 52878  53.2144 201.6463 0003448   6.1476  13.2607 15.73218332  1304,6727.843000000003,91.532,352.028,347.38800000000015,0.0
52878.0,STARLINK-4171,PAYLOAD,2022-07-28 22:00:00,15.73149391,0.0003232,53.2146,199.9953,7.2876,101.0347,0.00046977,0.00065695,0.0,0 STARLINK-4171,1 52878U 22062BA  22209.91667824  .00065695  00000-0  46977-3 0  9997,2 52878  53.2146 199.9953 0003232   7.2876 101.0347 15.73149391  1301,6728.0390000000025,91.536,352.079,347.73,0.0
52878.0,STARLINK-4171,PAYLOAD,2022-07-29 14:00:01,15.73218241,0.0003461999999999,53.214,196.6978,8.3732,277.7505,-6.2924e-05,-9.455e-05,0.0,0 STARLINK-4171,1 52878U 22062BA  22210.58334491 -.00009455  00000-0 -62924-4 0  9998,2 52878  53.2140 196.6978 0003462   8.3732 277.7505 15.73218241  1302,6727.843000000003,91.532,352.037,347.379,0.0
52878.0,STARLINK-4171,PAYLOAD,2022-07-29 22:00:00,15.73217849,0.000323,53.2144,195.0467,9.5109,5.5576,0.00018804,0.00025875,0.0,0 STARLINK-4171,1 52878U 22062BA  22210.91667824  .00025875  00000-0  18804-3 0  9993,2 52878  53.2144 195.0467 0003230   9.5109   5.5576 15.73217849  1304,6727.844,91.532,351.88199999999995,347.536,0.0
52878.0,STARLINK-4171,PAYLOAD,2022-07-30 14:00:01,15.73215123,0.0003463,53.2148,191.7491,6.8914,186.0618,-0.00011852,-0.0001724,0.0,0 STARLINK-4171,1 52878U 22062BA  22211.58334491 -.00017240  00000-0 -11852-3 0  9993,2 52878  53.2148 191.7491 0003463   6.8914 186.0618 15.73215123  1305,6727.852,91.532,352.047,347.38699999999994,0.0
52878.0,STARLINK-4171,PAYLOAD,2022-07-30 22:00:00,15.73209221,0.0003276,53.215,190.0982,8.8289,273.0679,0.00038905,0.00054366,0.0,0 STARLINK-4171,1 52878U 22062BA  22211.91667824  .00054366  00000-0  38905-3 0  9995,2 52878  53.2150 190.0982 0003276   8.8289 273.0679 15.73209221  7339,6727.869000000002,91.533,351.93800000000016,347.53,0.0
52878.0,STARLINK-4171,PAYLOAD,2022-07-31 06:00:02,15.73249245,0.0003519,53.2148,188.4507,7.9269,2.9881,-0.00064403,-0.00090271,0.0,0 STARLINK-4171,1 52878U 22062BA  22212.25002315 -.00090271  00000-0 -64403-3 0  9990,2 52878  53.2148 188.4507 0003519   7.9269   2.9881 15.73249245  7387,6727.755,91.53,351.987,347.25199999999984,0.0
52878.0,STARLINK-4171,PAYLOAD,2022-07-31 14:00:01,15.73203916,0.0003441999999999,53.2144,186.8003,6.3223,93.4763,-0.00010486,-0.00015321,0.0,0 STARLINK-4171,1 52878U 22062BA  22212.58334491 -.00015321  00000-0 -10486-3 0  9994,2 52878  53.2144 186.8003 0003442   6.3223  93.4763 15.73203916  7439,6727.884,91.533,352.065,347.43300000000005,0.0
52878.0,STARLINK-4171,PAYLOAD,2022-07-31 22:00:00,15.73203083,0.0003205,53.2148,185.1497,8.4174,180.3114,0.00035015,0.00048822,0.0,0 STARLINK-4171,1 52878U 22062BA  22212.91667824  .00048822  00000-0  35015-3 0  9995,2 52878  53.2148 185.1497 0003205   8.4174 180.3114 15.73203083  1308,6727.886,91.533,351.908,347.595,0.0
52878.0,STARLINK-4171,PAYLOAD,2022-08-01 04:00:00,15.73237881,0.0003426,53.2148,183.9142,7.9105,157.5277,-0.00010252,-0.00015014,0.0,0 STARLINK-4171,1 52878U 22062BA  22213.16667824 -.00015014  00000-0 -10252-3 0  9998,2 52878  53.2148 183.9142 0003426   7.9105 157.5277 15.73237881  7523,6727.7869999999975,91.531,351.957,347.347,0.0
52878.0,STARLINK-4171,PAYLOAD,2022-08-01 14:00:01,15.73217562,0.0003401,53.2151,181.8517,5.3566,1.2997,-0.00016408,-0.00023611,0.0,0 STARLINK-4171,1 52878U 22062BA  22213.58334491 -.00023611  00000-0 -16408-3 0  9996,2 52878  53.2151 181.8517 0003401   5.3566   1.2997 15.73217562  1304,6727.845,91.532,351.99800000000016,347.422,0.0
52878.0,STARLINK-4171,PAYLOAD,2022-08-01 22:00:00,15.73229872,0.0003265,53.2153,180.2013,6.5822,89.0094,-4.981e-06,-1.324e-05,0.0,0 STARLINK-4171,1 52878U 22062BA  22213.91667824 -.00001324  00000-0 -49810-5 0  9994,2 52878  53.2153 180.2013 0003265   6.5822  89.0094 15.73229872  1305,6727.81,91.531,351.872,347.478,0.0
52878.0,STARLINK-4171,PAYLOAD,2022-08-02 06:00:02,15.73183088,0.0003561,53.215,178.5537,4.77,179.8539,-2.0491e-05,-3.497e-05,0.0,0 STARLINK-4171,1 52878U 22062BA  22214.25002315 -.00003497  00000-0 -20491-4 0  9996,2 52878  53.2150 178.5537 0003561   4.7700 179.8539 15.73183088  7695,6727.943,91.534,352.204,347.413,0.0
52878.0,STARLINK-4171,PAYLOAD,2022-08-02 14:00:01,15.73204851,0.0003387,53.2145,176.9031,3.9462,269.5184,-6.8532e-05,-0.00010235,0.0,0 STARLINK-4171,1 52878U 22062BA  22214.58334491 -.00010235  00000-0 -68532-4 0  9991,2 52878  53.2145 176.9031 0003387   3.9462 269.5184 15.73204851  1309,6727.880999999999,91.533,352.025,347.468,0.0
52878.0,STARLINK-4171,PAYLOAD,2022-08-03 06:00:00,15.73167654,0.000347,53.2149,173.6054,2.1606,89.191,0.00020106,0.00027656,0.0,0 STARLINK-4171,1 52878U 22062BA  22215.25001157  .00027656  00000-0  20106-3 0  9993,2 52878  53.2149 173.6054 0003470   2.1606  89.1910 15.73167654  7854,6727.986999999999,91.535,352.18699999999984,347.51800000000014,0.0
52878.0,STARLINK-4171,PAYLOAD,2022-08-03 14:00:01,15.73208957,0.0003398,53.215,171.9546,1.8977,178.3584,-8.6643e-06,-1.84e-05,0.0,0 STARLINK-4171,1 52878U 22062BA  22215.58334491 -.00001840  00000-0 -86643-5 0  9998,2 52878  53.2150 171.9546 0003398   1.8977 178.3584 15.73208957  1303,6727.87,91.533,352.021,347.449,0.0
52878.0,STARLINK-4171,PAYLOAD,2022-08-03 22:00:01,15.73245767,0.0003248,53.215,170.3045,2.7809,266.4676,-0.00022794,-0.00032562,0.0,0 STARLINK-4171,1 52878U 22062BA  22215.91668981 -.00032562  00000-0 -22794-3 0  9999,2 52878  53.2150 170.3045 0003248   2.7809 266.4676 15.73245767  1309,6727.765,91.531,351.815,347.445,0.0
52878.0,STARLINK-4171,PAYLOAD,2022-08-04 14:00:01,15.73204718,0.0003355,53.2142,167.0058,1.7702,85.3052,6.791e-05,8.922e-05,0.0,0 STARLINK-4171,1 52878U 22062BA  22216.58334491  .00008922  00000-0  67910-4 0  9990,2 52878  53.2142 167.0058 0003355   1.7702  85.3052 15.73204718  1304,6727.882,91.533,352.004,347.49,0.0
52878.0,STARLINK-4171,PAYLOAD,2022-08-04 22:00:00,15.73255397,0.0003231,53.2144,165.3559,5.8867,170.1285,-0.00054073,-0.00076033,0.0,0 STARLINK-4171,1 52878U 22062BA  22216.91667824 -.00076033  00000-0 -54073-3 0  9991,2 52878  53.2144 165.3559 0003231   5.8867 170.1285 15.73255397  1303,6727.736999999999,91.53,351.776,347.42900000000014,0.0
52878.0,STARLINK-4171,PAYLOAD,2022-08-05 14:00:01,15.73236284,0.0003331999999999,53.2145,162.05700000000004,5.9453,348.0149,-0.00054849,-0.00077045,0.0,0 STARLINK-4171,1 52878U 22062BA  22217.58335648 -.00077045  00000-0 -54849-3 0  9996,2 52878  53.2145 162.0570 0003332   5.9453 348.0149 15.73236284  8222,6727.792,91.531,351.898,347.415,0.0
